IRIDIUM 57              
1 25273U 98019B   24119.92394963  .00000655  00000+0  22238-3 0  9993
2 25273  86.3933 318.7719 0002162  88.1079 272.0365 14.35174403365352
IRIDIUM 63              
1 25286U 98021B   24119.89676456  .00001017  00000+0  34553-3 0  9992
2 25286  86.3970 255.6527 0002130  98.6317 261.5121 14.35716507364381
IRIDIUM 69              
1 25319U 98026A   24120.17936296  .00001158  00000+0  36236-3 0  9994
2 25319  86.3942 270.0782 0001355  11.5938 348.5292 14.39930813363704
IRIDIUM 71              
1 25320U 98026B   24119.91221924  .00001060  00000+0  32892-3 0  9997
2 25320  86.3948 264.9586 0003257  52.8318 307.3178 14.40250828363944
IRIDIUM 73              
1 25344U 98032C   24119.77031610  .00001341  00000+0  33803-3 0  9990
2 25344  86.4467 222.5211 0001753  82.7433 277.3971 14.50468536370461
IRIDIUM 82              
1 25467U 98051A   24120.02108221  .00013093  00000+0  67590-3 0  9997
2 25467  86.3716 309.0882 0131976  42.0833 319.0447 15.08817517361072
IRIDIUM 2               
1 25527U 98066A   24119.64150611  .00130495  00000+0  10465-2 0  9990
2 25527  85.5057 335.4375 0004143 131.3383 228.8243 15.70612818400100
